[{"OBJECT_NAME":"LEMUR-2-LANGER2SPACE","OBJECT_ID":"2025-061H","EPOCH":"2026-03-09T22:29:21.653952","MEAN_MOTION":15.13463796,"ECCENTRICITY":0.00153346,"INCLINATION":97.5541,"RA_OF_ASC_NODE":45.3892,"ARG_OF_PERICENTER":237.418,"MEAN_ANOMALY":122.5571,"EPHEMERIS_TYPE":0,"CLASSIFICATION_TYPE":"U","NORAD_CAT_ID":63358,"ELEMENT_SET_NO":999,"REV_AT_EPOCH":5260,"BSTAR":0.00035148431,"MEAN_MOTION_DOT":6.238e-5,"MEAN_MOTION_DDOT":0},{"OBJECT_NAME":"SSA","OBJECT_ID":"1983-008E","EPOCH":"2026-03-09T21:11:47.750784","MEAN_MOTION":13.77143682,"ECCENTRICITY":0.07220619,"INCLINATION":63.3104,"RA_OF_ASC_NODE":301.3649,"ARG_OF_PERICENTER":133.1632,"MEAN_ANOMALY":233.2137,"EPHEMERIS_TYPE":0,"CLASSIFICATION_TYPE":"U","NORAD_CAT_ID":13844,"ELEMENT_SET_NO":999,"REV_AT_EPOCH":34517,"BSTAR":0.00050457017,"MEAN_MOTION_DOT":3.706e-5,"MEAN_MOTION_DDOT":0}]
